ONEWEB-0311             
1 49097U 21075Y   24193.42116511  .00000071  00000+0  14996-3 0  9993
2 49097  87.9184 146.3789 0002137  95.4738 264.6637 13.17650884141682
ONEWEB-0312             
1 49098U 21075Z   24193.35977511  .00000082  00000+0  17769-3 0  9994
2 49098  87.9183 146.4226 0001701  93.3194 266.8132 13.17648694140654
ONEWEB-0313             
1 49099U 21075AA  24193.41309314  .00000048  00000+0  90866-4 0  9994
2 49099  87.9184 146.4149 0001890  88.8108 271.3240 13.17648062140653
ONEWEB-0314             
1 49100U 21075AB  24193.40661770  .00000085  00000+0  18652-3 0  9996
2 49100  87.9180 146.3731 0001796  93.5472 266.5865 13.17647302140622
ONEWEB-0315             
1 49101U 21075AC  24193.32946881 -.00000128  00000+0 -39107-3 0  9995
2 49101  87.8949 131.2222 0002152  78.9938 281.1432 13.12443952142584
ONEWEB-0316             
1 49102U 21075AD  24193.81155212 -.00000016  00000+0 -72788-4 0  9999
2 49102  87.9153 115.8880 0002087  84.2527 275.8843 13.18687669144244
ONEWEB-0317             
1 49103U 21075AE  24193.78040302 -.00000360  00000+0 -10366-2 0  9993
2 49103  87.8951 131.1425 0001977  65.4638 294.6696 13.12442496142667
ONEWEB-0318             
1 49104U 21075AF  24193.80838803  .00000055  00000+0  10735-3 0  9998
2 49104  87.9151 115.8814 0002111  87.0406 273.0968 13.18687637144205
